SL-16 R/B               
1 25400U 98043G   26051.40122504  .00000051  00000+0  40204-4 0  9996
2 25400  98.8225   4.6454 0010880  66.8379 293.3946 14.26045374436528
SL-16 R/B               
1 25407U 98045B   26051.69187413  .00000105  00000+0  77004-4 0  9994
2 25407  71.0097 217.3182 0005859  37.2846 322.8683 14.16190992424694
ISS (ZARYA)             
1 25544U 98067A   26051.53885789  .00009982  00000+0  19450-3 0  9996
2 25544  51.6324 157.1302 0008583 115.7613 244.4262 15.48162254553678
CZ-4B R/B               
1 25732U 99025C   26051.74342066  .00000042  00000+0  40843-4 0  9998
2 25732  98.6663  96.4235 0037669  35.1536  75.0473 14.18261748385769
OKEAN-O                 
1 25860U 99039A   26051.68585999  .00000584  00000+0  83506-4 0  9996
2 25860  97.9482 111.7471 0001669  78.4021 281.7378 14.80305642431870
SL-16 R/B               
1 25861U 99039B   26051.68177515  .00000486  00000+0  68500-4 0  9996
2 25861  98.0006 110.8005 0013787 316.3493  43.6628 14.81705610434347
DELTA 2 R/B             
1 25876U 99041E   26051.30976164  .00001387  00000+0  26091-3 0  9990
2 25876  51.7662  10.6882 0502219 297.1100  57.9452 14.11770959360578
HELIOS 1B               
1 25977U 99064A   26051.69690175  .00001601  00000+0  18251-3 0  9992
2 25977  98.1714 313.4396 0002361  97.8859 262.2625 14.87622051682736
TERRA                   
1 25994U 99068A   26051.74003219  .00000355  00000+0  81413-4 0  9994
2 25994  97.9631 105.8191 0001490 199.9487 271.4531 14.60994830392609
SL-16 R/B               
1 26070U 00006B   26051.63220924  .00000039  00000+0  43952-4 0  9991
2 26070  71.0022 133.7044 0017850 213.8773 146.1211 14.15818419346149
TITAN 4B R/B            
1 26474U 00047B   26051.20337052  .00002514  00000+0  16286-3 0  9997
2 26474  67.9877  89.6765 0037498  56.5431 303.9294 15.09395380390279
ENVISAT                 
1 27386U 02009A   26051.44708655  .00000103  00000+0  47176-4 0  9992
2 27386  98.3700   5.4583 0001355  87.1457  22.2244 14.39029901256698
