CCSDS_OMM_VERS = 2.0
CREATION_DATE  = 
ORIGINATOR     = 

OBJECT_NAME    = SL-16 R/B
OBJECT_ID      = 1998-043G
CENTER_NAME    = EARTH
REF_FRAME      = TEME
TIME_SYSTEM    = UTC
MEAN_ELEMENT_THEORY = SGP/SGP4

EPOCH          = 2026-02-20T09:37:45.843456
MEAN_MOTION    = 14.26045374
ECCENTRICITY   = .001088
INCLINATION    = 98.8225
RA_OF_ASC_NODE = 4.6454
ARG_OF_PERICENTER = 66.8379
MEAN_ANOMALY   = 293.3946

EPHEMERIS_TYPE = 0
CLASSIFICATION_TYPE = U
NORAD_CAT_ID   = 25400
ELEMENT_SET_NO = 999
REV_AT_EPOCH   = 43652
BSTAR          = .40204E-4
MEAN_MOTION_DOT = .51E-6
MEAN_MOTION_DDOT = 0

CCSDS_OMM_VERS = 2.0
CREATION_DATE  = 
ORIGINATOR     = 

OBJECT_NAME    = SL-16 R/B
OBJECT_ID      = 1998-045B
CENTER_NAME    = EARTH
REF_FRAME      = TEME
TIME_SYSTEM    = UTC
MEAN_ELEMENT_THEORY = SGP/SGP4

EPOCH          = 2026-02-20T16:36:17.924832
MEAN_MOTION    = 14.16190992
ECCENTRICITY   = .0005859
INCLINATION    = 71.0097
RA_OF_ASC_NODE = 217.3182
ARG_OF_PERICENTER = 37.2846
MEAN_ANOMALY   = 322.8683

EPHEMERIS_TYPE = 0
CLASSIFICATION_TYPE = U
NORAD_CAT_ID   = 25407
ELEMENT_SET_NO = 999
REV_AT_EPOCH   = 42469
BSTAR          = .77004E-4
MEAN_MOTION_DOT = .105E-5
MEAN_MOTION_DDOT = 0

CCSDS_OMM_VERS = 2.0
CREATION_DATE  = 
ORIGINATOR     = 

OBJECT_NAME    = ISS (ZARYA)
OBJECT_ID      = 1998-067A
CENTER_NAME    = EARTH
REF_FRAME      = TEME
TIME_SYSTEM    = UTC
MEAN_ELEMENT_THEORY = SGP/SGP4

EPOCH          = 2026-02-20T12:55:57.321696
MEAN_MOTION    = 15.48162254
ECCENTRICITY   = .0008583
INCLINATION    = 51.6324
RA_OF_ASC_NODE = 157.1302
ARG_OF_PERICENTER = 115.7613
MEAN_ANOMALY   = 244.4262

EPHEMERIS_TYPE = 0
CLASSIFICATION_TYPE = U
NORAD_CAT_ID   = 25544
ELEMENT_SET_NO = 999
REV_AT_EPOCH   = 55367
BSTAR          = .1945E-3
MEAN_MOTION_DOT = .9982E-4
MEAN_MOTION_DDOT = 0

CCSDS_OMM_VERS = 2.0
CREATION_DATE  = 
ORIGINATOR     = 

OBJECT_NAME    = CZ-4B R/B
OBJECT_ID      = 1999-025C
CENTER_NAME    = EARTH
REF_FRAME      = TEME
TIME_SYSTEM    = UTC
MEAN_ELEMENT_THEORY = SGP/SGP4

EPOCH          = 2026-02-20T17:50:31.545024
MEAN_MOTION    = 14.18261748
ECCENTRICITY   = .0037669
INCLINATION    = 98.6663
RA_OF_ASC_NODE = 96.4235
ARG_OF_PERICENTER = 35.1536
MEAN_ANOMALY   = 75.0473

EPHEMERIS_TYPE = 0
CLASSIFICATION_TYPE = U
NORAD_CAT_ID   = 25732
ELEMENT_SET_NO = 999
REV_AT_EPOCH   = 38576
BSTAR          = .40843E-4
MEAN_MOTION_DOT = .42E-6
MEAN_MOTION_DDOT = 0

CCSDS_OMM_VERS = 2.0
CREATION_DATE  = 
ORIGINATOR     = 

OBJECT_NAME    = OKEAN-O
OBJECT_ID      = 1999-039A
CENTER_NAME    = EARTH
REF_FRAME      = TEME
TIME_SYSTEM    = UTC
MEAN_ELEMENT_THEORY = SGP/SGP4

EPOCH          = 2026-02-20T16:27:38.303136
MEAN_MOTION    = 14.80305642
ECCENTRICITY   = .0001669
INCLINATION    = 97.9482
RA_OF_ASC_NODE = 111.7471
ARG_OF_PERICENTER = 78.4021
MEAN_ANOMALY   = 281.7378

EPHEMERIS_TYPE = 0
CLASSIFICATION_TYPE = U
NORAD_CAT_ID   = 25860
ELEMENT_SET_NO = 999
REV_AT_EPOCH   = 43187
BSTAR          = .83506E-4
MEAN_MOTION_DOT = .584E-5
MEAN_MOTION_DDOT = 0

CCSDS_OMM_VERS = 2.0
CREATION_DATE  = 
ORIGINATOR     = 

OBJECT_NAME    = SL-16 R/B
OBJECT_ID      = 1999-039B
CENTER_NAME    = EARTH
REF_FRAME      = TEME
TIME_SYSTEM    = UTC
MEAN_ELEMENT_THEORY = SGP/SGP4

EPOCH          = 2026-02-20T16:21:45.372960
MEAN_MOTION    = 14.81705610
ECCENTRICITY   = .0013787
INCLINATION    = 98.0006
RA_OF_ASC_NODE = 110.8005
ARG_OF_PERICENTER = 316.3493
MEAN_ANOMALY   = 43.6628

EPHEMERIS_TYPE = 0
CLASSIFICATION_TYPE = U
NORAD_CAT_ID   = 25861
ELEMENT_SET_NO = 999
REV_AT_EPOCH   = 43434
BSTAR          = .685E-4
MEAN_MOTION_DOT = .486E-5
MEAN_MOTION_DDOT = 0

CCSDS_OMM_VERS = 2.0
CREATION_DATE  = 
ORIGINATOR     = 

OBJECT_NAME    = DELTA 2 R/B
OBJECT_ID      = 1999-041E
CENTER_NAME    = EARTH
REF_FRAME      = TEME
TIME_SYSTEM    = UTC
MEAN_ELEMENT_THEORY = SGP/SGP4

EPOCH          = 2026-02-20T07:26:03.405696
MEAN_MOTION    = 14.11770959
ECCENTRICITY   = .0502219
INCLINATION    = 51.7662
RA_OF_ASC_NODE = 10.6882
ARG_OF_PERICENTER = 297.1100
MEAN_ANOMALY   = 57.9452

EPHEMERIS_TYPE = 0
CLASSIFICATION_TYPE = U
NORAD_CAT_ID   = 25876
ELEMENT_SET_NO = 999
REV_AT_EPOCH   = 36057
BSTAR          = .26091E-3
MEAN_MOTION_DOT = .1387E-4
MEAN_MOTION_DDOT = 0

CCSDS_OMM_VERS = 2.0
CREATION_DATE  = 
ORIGINATOR     = 

OBJECT_NAME    = HELIOS 1B
OBJECT_ID      = 1999-064A
CENTER_NAME    = EARTH
REF_FRAME      = TEME
TIME_SYSTEM    = UTC
MEAN_ELEMENT_THEORY = SGP/SGP4

EPOCH          = 2026-02-20T16:43:32.311200
MEAN_MOTION    = 14.87622051
ECCENTRICITY   = .0002361
INCLINATION    = 98.1714
RA_OF_ASC_NODE = 313.4396
ARG_OF_PERICENTER = 97.8859
MEAN_ANOMALY   = 262.2625

EPHEMERIS_TYPE = 0
CLASSIFICATION_TYPE = U
NORAD_CAT_ID   = 25977
ELEMENT_SET_NO = 999
REV_AT_EPOCH   = 68273
BSTAR          = .18251E-3
MEAN_MOTION_DOT = .1601E-4
MEAN_MOTION_DDOT = 0

CCSDS_OMM_VERS = 2.0
CREATION_DATE  = 
ORIGINATOR     = 

OBJECT_NAME    = TERRA
OBJECT_ID      = 1999-068A
CENTER_NAME    = EARTH
REF_FRAME      = TEME
TIME_SYSTEM    = UTC
MEAN_ELEMENT_THEORY = SGP/SGP4

EPOCH          = 2026-02-20T17:45:38.781216
MEAN_MOTION    = 14.60994830
ECCENTRICITY   = .000149
INCLINATION    = 97.9631
RA_OF_ASC_NODE = 105.8191
ARG_OF_PERICENTER = 199.9487
MEAN_ANOMALY   = 271.4531

EPHEMERIS_TYPE = 0
CLASSIFICATION_TYPE = U
NORAD_CAT_ID   = 25994
ELEMENT_SET_NO = 999
REV_AT_EPOCH   = 39260
BSTAR          = .81413E-4
MEAN_MOTION_DOT = .355E-5
MEAN_MOTION_DDOT = 0

CCSDS_OMM_VERS = 2.0
CREATION_DATE  = 
ORIGINATOR     = 

OBJECT_NAME    = SL-16 R/B
OBJECT_ID      = 2000-006B
CENTER_NAME    = EARTH
REF_FRAME      = TEME
TIME_SYSTEM    = UTC
MEAN_ELEMENT_THEORY = SGP/SGP4

EPOCH          = 2026-02-20T15:10:22.878336
MEAN_MOTION    = 14.15818419
ECCENTRICITY   = .001785
INCLINATION    = 71.0022
RA_OF_ASC_NODE = 133.7044
ARG_OF_PERICENTER = 213.8773
MEAN_ANOMALY   = 146.1211

EPHEMERIS_TYPE = 0
CLASSIFICATION_TYPE = U
NORAD_CAT_ID   = 26070
ELEMENT_SET_NO = 999
REV_AT_EPOCH   = 34614
BSTAR          = .43952E-4
MEAN_MOTION_DOT = .39E-6
MEAN_MOTION_DDOT = 0

CCSDS_OMM_VERS = 2.0
CREATION_DATE  = 
ORIGINATOR     = 

OBJECT_NAME    = TITAN 4B R/B
OBJECT_ID      = 2000-047B
CENTER_NAME    = EARTH
REF_FRAME      = TEME
TIME_SYSTEM    = UTC
MEAN_ELEMENT_THEORY = SGP/SGP4

EPOCH          = 2026-02-20T04:52:51.212928
MEAN_MOTION    = 15.09395380
ECCENTRICITY   = .00374981
INCLINATION    = 67.9877
RA_OF_ASC_NODE = 89.6765
ARG_OF_PERICENTER = 56.5431
MEAN_ANOMALY   = 303.9294

EPHEMERIS_TYPE = 0
CLASSIFICATION_TYPE = U
NORAD_CAT_ID   = 26474
ELEMENT_SET_NO = 999
REV_AT_EPOCH   = 39027
BSTAR          = .16286464E-3
MEAN_MOTION_DOT = .2514E-4
MEAN_MOTION_DDOT = 0

CCSDS_OMM_VERS = 2.0
CREATION_DATE  = 
ORIGINATOR     = 

OBJECT_NAME    = ENVISAT
OBJECT_ID      = 2002-009A
CENTER_NAME    = EARTH
REF_FRAME      = TEME
TIME_SYSTEM    = UTC
MEAN_ELEMENT_THEORY = SGP/SGP4

EPOCH          = 2026-02-20T10:43:48.277920
MEAN_MOTION    = 14.39029901
ECCENTRICITY   = .0001355
INCLINATION    = 98.3700
RA_OF_ASC_NODE = 5.4583
ARG_OF_PERICENTER = 87.1457
MEAN_ANOMALY   = 22.2244

EPHEMERIS_TYPE = 0
CLASSIFICATION_TYPE = U
NORAD_CAT_ID   = 27386
ELEMENT_SET_NO = 999
REV_AT_EPOCH   = 25669
BSTAR          = .47176E-4
MEAN_MOTION_DOT = .103E-5
MEAN_MOTION_DDOT = 0

